{
  "type": "FeatureCollection",
  "features": [
    {
      "type": "Feature",
      "properties": {
        "norad_id": 30273,
        "name": "FENGYUN 1C DEB",
        "group": "fengyun-1c-debris",
        "lat": -31.041561962653574,
        "lon": -2.9547471479906204,
        "alt_km": 862.9058161604635,
        "timestamp": "2025-12-02T19:35:50.830947+00:00",
        "meta_object_name": "FENGYUN 1C DEB",
        "meta_object_id": "1999-025YJ",
        "meta_epoch": "2025-12-02T11:56:18.212928",
        "meta_mean_motion": 14.02633327,
        "meta_eccentricity": 0.006061,
        "meta_inclination": 98.8413,
        "meta_ra_of_asc_node": 351.3605,
        "meta_arg_of_pericenter": 278.2908,
        "meta_mean_anomaly": 239.2777,
        "meta_ephemeris_type": 0,
        "meta_classification_type": "U",
        "meta_norad_cat_id": 30273,
        "meta_element_set_no": 999,
        "meta_rev_at_epoch": 96385,
        "meta_bstar": 0.00080979,
        "meta_mean_motion_dot": 1.226e-05,
        "meta_mean_motion_ddot": 0,
        "tle_line1": "1 30273U 99025YJ  25336.49743302  .00001226  00000+0  80979-3 0  9997",
        "tle_line2": "2 30273  98.8413 351.3605 0060610 278.2908 239.2777 14.02633327963851"
      },
      "geometry": {
        "type": "Point",
        "coordinates": [
          -2.9547471479906204,
          -31.041561962653574
        ]
      }
    },
    {
      "type": "Feature",
      "properties": {
        "norad_id": 30274,
        "name": "FENGYUN 1C DEB",
        "group": "fengyun-1c-debris",
        "lat": -29.426021680061424,
        "lon": -80.86558178222333,
        "alt_km": 724.0924414302262,
        "timestamp": "2025-12-02T19:35:50.830958+00:00",
        "meta_object_name": "FENGYUN 1C DEB",
        "meta_object_id": "1999-025YK",
        "meta_epoch": "2025-12-02T02:54:45.401184",
        "meta_mean_motion": 14.51262156,
        "meta_eccentricity": 0.00047825,
        "meta_inclination": 99.3015,
        "meta_ra_of_asc_node": 103.6705,
        "meta_arg_of_pericenter": 228.8123,
        "meta_mean_anomaly": 310.889,
        "meta_ephemeris_type": 0,
        "meta_classification_type": "U",
        "meta_norad_cat_id": 30274,
        "meta_element_set_no": 999,
        "meta_rev_at_epoch": 98056,
        "meta_bstar": 0.0030720068,
        "meta_mean_motion_dot": 0.00012188,
        "meta_mean_motion_ddot": 0,
        "tle_line1": "1 30274U 99025YK  25336.12135881  .00012188  00000+0  30720-2 0  9992",
        "tle_line2": "2 30274  99.3015 103.6705 0004782 228.8123 310.8890 14.51262156980564"
      },
      "geometry": {
        "type": "Point",
        "coordinates": [
          -80.86558178222333,
          -29.426021680061424
        ]
      }
    },
    {
      "type": "Feature",
      "properties": {
        "norad_id": 30275,
        "name": "FENGYUN 1C DEB",
        "group": "fengyun-1c-debris",
        "lat": 26.32478962034971,
        "lon": 56.609814212403535,
        "alt_km": 769.0119288981759,
        "timestamp": "2025-12-02T19:35:50.830968+00:00",
        "meta_object_name": "FENGYUN 1C DEB",
        "meta_object_id": "1999-025YL",
        "meta_epoch": "2025-12-02T04:39:18.747072",
        "meta_mean_motion": 14.45009512,
        "meta_eccentricity": 0.00397882,
        "meta_inclination": 98.6291,
        "meta_ra_of_asc_node": 60.2864,
        "meta_arg_of_pericenter": 216.9748,
        "meta_mean_anomaly": 172.8162,
        "meta_ephemeris_type": 0,
        "meta_classification_type": "U",
        "meta_norad_cat_id": 30275,
        "meta_element_set_no": 999,
        "meta_rev_at_epoch": 97932,
        "meta_bstar": 0.0027239672,
        "meta_mean_motion_dot": 9.565e-05,
        "meta_mean_motion_ddot": 0,
        "tle_line1": "1 30275U 99025YL  25336.19396698  .00009565  00000+0  27240-2 0  9993",
        "tle_line2": "2 30275  98.6291  60.2864 0039788 216.9748 172.8162 14.45009512979320"
      },
      "geometry": {
        "type": "Point",
        "coordinates": [
          56.609814212403535,
          26.32478962034971
        ]
      }
    },
    {
      "type": "Feature",
      "properties": {
        "norad_id": 30276,
        "name": "FENGYUN 1C DEB",
        "group": "fengyun-1c-debris",
        "lat": -74.75621863091303,
        "lon": -166.65613966809426,
        "alt_km": 823.002685299185,
        "timestamp": "2025-12-02T19:35:50.830978+00:00",
        "meta_object_name": "FENGYUN 1C DEB",
        "meta_object_id": "1999-025YM",
        "meta_epoch": "2025-12-02T11:39:52.965216",
        "meta_mean_motion": 14.269213,
        "meta_eccentricity": 0.0025689,
        "meta_inclination": 98.8606,
        "meta_ra_of_asc_node": 47.928,
        "meta_arg_of_pericenter": 120.5125,
        "meta_mean_anomaly": 239.8596,
        "meta_ephemeris_type": 0,
        "meta_classification_type": "U",
        "meta_norad_cat_id": 30276,
        "meta_element_set_no": 999,
        "meta_rev_at_epoch": 97384,
        "meta_bstar": 0.0016463,
        "meta_mean_motion_dot": 3.97e-05,
        "meta_mean_motion_ddot": 0,
        "tle_line1": "1 30276U 99025YM  25336.48602969  .00003970  00000+0  16463-2 0  9996",
        "tle_line2": "2 30276  98.8606  47.9280 0025689 120.5125 239.8596 14.26921300973844"
      },
      "geometry": {
        "type": "Point",
        "coordinates": [
          -166.65613966809426,
          -74.75621863091303
        ]
      }
    },
    {
      "type": "Feature",
      "properties": {
        "norad_id": 30277,
        "name": "FENGYUN 1C DEB",
        "group": "fengyun-1c-debris",
        "lat": 79.68662286834996,
        "lon": -12.828791438031292,
        "alt_km": 884.7942521610266,
        "timestamp": "2025-12-02T19:35:50.830988+00:00",
        "meta_object_name": "FENGYUN 1C DEB",
        "meta_object_id": "1999-025YN",
        "meta_epoch": "2025-12-02T04:02:09.672000",
        "meta_mean_motion": 14.13479354,
        "meta_eccentricity": 0.01238031,
        "meta_inclination": 98.9749,
        "meta_ra_of_asc_node": 46.8009,
        "meta_arg_of_pericenter": 207.3565,
        "meta_mean_anomaly": 181.2516,
        "meta_ephemeris_type": 0,
        "meta_classification_type": "U",
        "meta_norad_cat_id": 30277,
        "meta_element_set_no": 999,
        "meta_rev_at_epoch": 96640,
        "meta_bstar": 0.0015581121,
        "meta_mean_motion_dot": 3.109e-05,
        "meta_mean_motion_ddot": 0,
        "tle_line1": "1 30277U 99025YN  25336.16816750  .00003109  00000+0  15581-2 0  9991",
        "tle_line2": "2 30277  98.9749  46.8009 0123803 207.3565 181.2516 14.13479354966409"
      },
      "geometry": {
        "type": "Point",
        "coordinates": [
          -12.828791438031292,
          79.68662286834996
        ]
      }
    },
    {
      "type": "Feature",
      "properties": {
        "norad_id": 30279,
        "name": "FENGYUN 1C DEB",
        "group": "fengyun-1c-debris",
        "lat": -65.1691243798318,
        "lon": -68.47915794252232,
        "alt_km": 976.5687053104193,
        "timestamp": "2025-12-02T19:35:50.830999+00:00",
        "meta_object_name": "FENGYUN 1C DEB",
        "meta_object_id": "1999-025YQ",
        "meta_epoch": "2025-12-02T07:06:57.371040",
        "meta_mean_motion": 14.23038731,
        "meta_eccentricity": 0.021975,
        "meta_inclination": 99.1488,
        "meta_ra_of_asc_node": 270.5988,
        "meta_arg_of_pericenter": 102.3984,
        "meta_mean_anomaly": 48.6126,
        "meta_ephemeris_type": 0,
        "meta_classification_type": "U",
        "meta_norad_cat_id": 30279,
        "meta_element_set_no": 999,
        "meta_rev_at_epoch": 97462,
        "meta_bstar": 0.00065387,
        "meta_mean_motion_dot": 1.839e-05,
        "meta_mean_motion_ddot": 0,
        "tle_line1": "1 30279U 99025YQ  25336.29649735  .00001839  00000+0  65387-3 0  9992",
        "tle_line2": "2 30279  99.1488 270.5988 0219750 102.3984  48.6126 14.23038731974629"
      },
      "geometry": {
        "type": "Point",
        "coordinates": [
          -68.47915794252232,
          -65.1691243798318
        ]
      }
    },
    {
      "type": "Feature",
      "properties": {
        "norad_id": 30280,
        "name": "FENGYUN 1C DEB",
        "group": "fengyun-1c-debris",
        "lat": -44.54594059190467,
        "lon": 137.89193342662426,
        "alt_km": 945.6258415745824,
        "timestamp": "2025-12-02T19:35:50.831009+00:00",
        "meta_object_name": "FENGYUN 1C DEB",
        "meta_object_id": "1999-025YR",
        "meta_epoch": "2025-12-02T12:13:46.612128",
        "meta_mean_motion": 13.98321476,
        "meta_eccentricity": 0.0080949,
        "meta_inclination": 98.7748,
        "meta_ra_of_asc_node": 326.3426,
        "meta_arg_of_pericenter": 358.2474,
        "meta_mean_anomaly": 123.0332,
        "meta_ephemeris_type": 0,
        "meta_classification_type": "U",
        "meta_norad_cat_id": 30280,
        "meta_element_set_no": 999,
        "meta_rev_at_epoch": 96263,
        "meta_bstar": 0.00037227,
        "meta_mean_motion_dot": 5.04e-06,
        "meta_mean_motion_ddot": 0,
        "tle_line1": "1 30280U 99025YR  25336.50956727  .00000504  00000+0  37227-3 0  9990",
        "tle_line2": "2 30280  98.7748 326.3426 0080949 358.2474 123.0332 13.98321476962631"
      },
      "geometry": {
        "type": "Point",
        "coordinates": [
          137.89193342662426,
          -44.54594059190467
        ]
      }
    }
  ]
}